[{"OBJECT_NAME":"STARLINK-30609","OBJECT_ID":"2023-160L","EPOCH":"2025-10-10T18:00:58.662144","MEAN_MOTION":15.02532299,"ECCENTRICITY":0.00013128,"INCLINATION":43.0027,"RA_OF_ASC_NODE":174.942,"ARG_OF_PERICENTER":262.4217,"MEAN_ANOMALY":97.6477,"EPHEMERIS_TYPE":0,"CLASSIFICATION_TYPE":"U","NORAD_CAT_ID":58085,"ELEMENT_SET_NO":999,"REV_AT_EPOCH":11036,"BSTAR":8.0097438e-5,"MEAN_MOTION_DOT":8.78e-6,"MEAN_MOTION_DDOT":0},{"OBJECT_NAME":"STARLINK-30583","OBJECT_ID":"2023-160M","EPOCH":"2025-10-11T00:19:05.689056","MEAN_MOTION":15.02537298,"ECCENTRICITY":0.0001547,"INCLINATION":43.002,"RA_OF_ASC_NODE":173.4712,"ARG_OF_PERICENTER":274.6621,"MEAN_ANOMALY":85.4045,"EPHEMERIS_TYPE":0,"CLASSIFICATION_TYPE":"U","NORAD_CAT_ID":58086,"ELEMENT_SET_NO":999,"REV_AT_EPOCH":11040,"BSTAR":0.0002485111,"MEAN_MOTION_DOT":3.155e-5,"MEAN_MOTION_DDOT":0},{"OBJECT_NAME":"STARLINK-30557","OBJECT_ID":"2023-160N","EPOCH":"2025-10-11T00:17:29.148288","MEAN_MOTION":15.02539952,"ECCENTRICITY":0.00012376,"INCLINATION":43.0039,"RA_OF_ASC_NODE":173.4648,"ARG_OF_PERICENTER":270.8526,"MEAN_ANOMALY":89.2175,"EPHEMERIS_TYPE":0,"CLASSIFICATION_TYPE":"U","NORAD_CAT_ID":58087,"ELEMENT_SET_NO":999,"REV_AT_EPOCH":11040,"BSTAR":0.00014040134,"MEAN_MOTION_DOT":1.694e-5,"MEAN_MOTION_DDOT":0},{"OBJECT_NAME":"STARLINK-30591","OBJECT_ID":"2023-160P","EPOCH":"2025-10-11T01:45:14.035968","MEAN_MOTION":15.02533574,"ECCENTRICITY":0.00011195,"INCLINATION":43.0032,"RA_OF_ASC_NODE":173.0606,"ARG_OF_PERICENTER":273.0537,"MEAN_ANOMALY":87.0177,"EPHEMERIS_TYPE":0,"CLASSIFICATION_TYPE":"U","NORAD_CAT_ID":58088,"ELEMENT_SET_NO":999,"REV_AT_EPOCH":11041,"BSTAR":0.00019935033,"MEAN_MOTION_DOT":2.49e-5,"MEAN_MOTION_DDOT":0},{"OBJECT_NAME":"STARLINK-30584","OBJECT_ID":"2023-160Q","EPOCH":"2025-10-11T01:40:25.982688","MEAN_MOTION":15.02540155,"ECCENTRICITY":0.00012435,"INCLINATION":43.0029,"RA_OF_ASC_NODE":173.0373,"ARG_OF_PERICENTER":272.7575,"MEAN_ANOMALY":87.3125,"EPHEMERIS_TYPE":0,"CLASSIFICATION_TYPE":"U","NORAD_CAT_ID":58089,"ELEMENT_SET_NO":999,"REV_AT_EPOCH":11041,"BSTAR":3.019674e-6,"MEAN_MOTION_DOT":-1.63e-6,"MEAN_MOTION_DDOT":0},{"OBJECT_NAME":"STARLINK-30590","OBJECT_ID":"2023-160R","EPOCH":"2025-10-11T01:50:01.247712","MEAN_MOTION":15.0254236,"ECCENTRICITY":0.00011965,"INCLINATION":43.002,"RA_OF_ASC_NODE":173.0854,"ARG_OF_PERICENTER":267.6028,"MEAN_ANOMALY":92.4677,"EPHEMERIS_TYPE":0,"CLASSIFICATION_TYPE":"U","NORAD_CAT_ID":58090,"ELEMENT_SET_NO":999,"REV_AT_EPOCH":11041,"BSTAR":0.00011076812,"MEAN_MOTION_DOT":1.293e-5,"MEAN_MOTION_DDOT":0},{"OBJECT_NAME":"STARLINK-30608","OBJECT_ID":"2023-160S","EPOCH":"2025-10-10T23:59:55.058784","MEAN_MOTION":15.02534756,"ECCENTRICITY":0.0001295,"INCLINATION":43.002,"RA_OF_ASC_NODE":173.3712,"ARG_OF_PERICENTER":272.3298,"MEAN_ANOMALY":87.7396,"EPHEMERIS_TYPE":0,"CLASSIFICATION_TYPE":"U","NORAD_CAT_ID":58091,"ELEMENT_SET_NO":999,"REV_AT_EPOCH":11040,"BSTAR":0.00024006,"MEAN_MOTION_DOT":3.04e-5,"MEAN_MOTION_DDOT":0},{"OBJECT_NAME":"STARLINK-30615","OBJECT_ID":"2023-160T","EPOCH":"2025-10-11T01:29:15.023616","MEAN_MOTION":15.02534031,"ECCENTRICITY":0.0001315,"INCLINATION":43.0046,"RA_OF_ASC_NODE":172.9733,"ARG_OF_PERICENTER":266.7516,"MEAN_ANOMALY":93.3175,"EPHEMERIS_TYPE":0,"CLASSIFICATION_TYPE":"U","NORAD_CAT_ID":58092,"ELEMENT_SET_NO":999,"REV_AT_EPOCH":11041,"BSTAR":-2.9741853e-5,"MEAN_MOTION_DOT":-6.05e-6,"MEAN_MOTION_DDOT":0},{"OBJECT_NAME":"STARLINK-30578","OBJECT_ID":"2023-160U","EPOCH":"2025-10-11T02:33:10.423296","MEAN_MOTION":15.02546662,"ECCENTRICITY":0.00010151,"INCLINATION":43.0012,"RA_OF_ASC_NODE":173.3002,"ARG_OF_PERICENTER":274.6776,"MEAN_ANOMALY":85.3951,"EPHEMERIS_TYPE":0,"CLASSIFICATION_TYPE":"U","NORAD_CAT_ID":58093,"ELEMENT_SET_NO":999,"REV_AT_EPOCH":11041,"BSTAR":-1.247047e-5,"MEAN_MOTION_DOT":-3.72e-6,"MEAN_MOTION_DDOT":0},{"OBJECT_NAME":"STARLINK-30574","OBJECT_ID":"2023-160V","EPOCH":"2025-10-11T03:01:46.724736","MEAN_MOTION":15.02531714,"ECCENTRICITY":0.00012372,"INCLINATION":43.0026,"RA_OF_ASC_NODE":172.5993,"ARG_OF_PERICENTER":265.0186,"MEAN_ANOMALY":95.0515,"EPHEMERIS_TYPE":0,"CLASSIFICATION_TYPE":"U","NORAD_CAT_ID":58094,"ELEMENT_SET_NO":999,"REV_AT_EPOCH":11042,"BSTAR":0.00012368771,"MEAN_MOTION_DOT":1.467e-5,"MEAN_MOTION_DDOT":0},{"OBJECT_NAME":"STARLINK-30570","OBJECT_ID":"2023-160W","EPOCH":"2025-10-10T09:23:58.605792","MEAN_MOTION":15.02538018,"ECCENTRICITY":0.00012359,"INCLINATION":43.0035,"RA_OF_ASC_NODE":176.5481,"ARG_OF_PERICENTER":275.9588,"MEAN_ANOMALY":84.1113,"EPHEMERIS_TYPE":0,"CLASSIFICATION_TYPE":"U","NORAD_CAT_ID":58095,"ELEMENT_SET_NO":999,"REV_AT_EPOCH":11031,"BSTAR":0.00010180599,"MEAN_MOTION_DOT":1.172e-5,"MEAN_MOTION_DDOT":0},{"OBJECT_NAME":"STARLINK-30581","OBJECT_ID":"2023-160X","EPOCH":"2025-10-10T23:36:06.192000","MEAN_MOTION":15.02527219,"ECCENTRICITY":0.0001266,"INCLINATION":43.0027,"RA_OF_ASC_NODE":174.0934,"ARG_OF_PERICENTER":241.2149,"MEAN_ANOMALY":118.8567,"EPHEMERIS_TYPE":0,"CLASSIFICATION_TYPE":"U","NORAD_CAT_ID":58096,"ELEMENT_SET_NO":999,"REV_AT_EPOCH":11039,"BSTAR":-4.8347e-5,"MEAN_MOTION_DOT":-8.56e-6,"MEAN_MOTION_DDOT":0},{"OBJECT_NAME":"STARLINK-30594","OBJECT_ID":"2023-161A","EPOCH":"2025-10-10T23:57:44.958528","MEAN_MOTION":15.30186885,"ECCENTRICITY":0.0001258,"INCLINATION":53.1604,"RA_OF_ASC_NODE":140.8047,"ARG_OF_PERICENTER":88.4529,"MEAN_ANOMALY":271.6615,"EPHEMERIS_TYPE":0,"CLASSIFICATION_TYPE":"U","NORAD_CAT_ID":58097,"ELEMENT_SET_NO":999,"REV_AT_EPOCH":11150,"BSTAR":0.00016466038,"MEAN_MOTION_DOT":4.519e-5,"MEAN_MOTION_DDOT":0},{"OBJECT_NAME":"STARLINK-30614","OBJECT_ID":"2023-161B","EPOCH":"2025-10-10T23:53:13.471584","MEAN_MOTION":15.30182871,"ECCENTRICITY":9.782e-5,"INCLINATION":53.161,"RA_OF_ASC_NODE":140.7856,"ARG_OF_PERICENTER":87.6128,"MEAN_ANOMALY":272.4985,"EPHEMERIS_TYPE":0,"CLASSIFICATION_TYPE":"U","NORAD_CAT_ID":58098,"ELEMENT_SET_NO":999,"REV_AT_EPOCH":11150,"BSTAR":2.7125548e-5,"MEAN_MOTION_DOT":4.44e-6,"MEAN_MOTION_DDOT":0},{"OBJECT_NAME":"STARLINK-30607","OBJECT_ID":"2023-161C","EPOCH":"2025-10-10T23:57:51.994944","MEAN_MOTION":15.30247741,"ECCENTRICITY":8.222e-5,"INCLINATION":53.1609,"RA_OF_ASC_NODE":130.8036,"ARG_OF_PERICENTER":66.8337,"MEAN_ANOMALY":293.2751,"EPHEMERIS_TYPE":0,"CLASSIFICATION_TYPE":"U","NORAD_CAT_ID":58099,"ELEMENT_SET_NO":999,"REV_AT_EPOCH":11163,"BSTAR":-0.0003108383,"MEAN_MOTION_DOT":-9.567e-5,"MEAN_MOTION_DDOT":0},{"OBJECT_NAME":"STARLINK-30600","OBJECT_ID":"2023-161D","EPOCH":"2025-10-11T00:06:52.420032","MEAN_MOTION":15.30185746,"ECCENTRICITY":8.941e-5,"INCLINATION":53.1597,"RA_OF_ASC_NODE":140.833,"ARG_OF_PERICENTER":108.6169,"MEAN_ANOMALY":251.4929,"EPHEMERIS_TYPE":0,"CLASSIFICATION_TYPE":"U","NORAD_CAT_ID":58100,"ELEMENT_SET_NO":999,"REV_AT_EPOCH":11150,"BSTAR":0.00015106881,"MEAN_MOTION_DOT":4.116e-5,"MEAN_MOTION_DDOT":0}]
