STARLINK-30609          
1 58085U 23160L   25283.75067896  .00000878  00000+0  80097-4 0  9996
2 58085  43.0027 174.9420 0001312 262.4217  97.6477 15.02532299110361
STARLINK-30583          
1 58086U 23160M   25284.01326029  .00003155  00000+0  24851-3 0  9999
2 58086  43.0020 173.4712 0001547 274.6621  85.4045 15.02537298110402
STARLINK-30557          
1 58087U 23160N   25284.01214292  .00001694  00000+0  14040-3 0  9993
2 58087  43.0039 173.4648 0001237 270.8526  89.2175 15.02539952110404
STARLINK-30591          
1 58088U 23160P   25284.07307912  .00002490  00000+0  19935-3 0  9995
2 58088  43.0032 173.0606 0001119 273.0537  87.0177 15.02533574110417
STARLINK-30584          
1 58089U 23160Q   25284.06974517 -.00000163  00000+0  30197-5 0  9997
2 58089  43.0029 173.0373 0001243 272.7575  87.3125 15.02540155110410
STARLINK-30590          
1 58090U 23160R   25284.07640333  .00001293  00000+0  11077-3 0  9994
2 58090  43.0020 173.0854 0001196 267.6028  92.4677 15.02542360110419
STARLINK-30608          
1 58091U 23160S   25283.99994281  .00003040  00000+0  24006-3 0  9997
2 58091  43.0020 173.3712 0001295 272.3298  87.7396 15.02534756110402
STARLINK-30615          
1 58092U 23160T   25284.06197944 -.00000605  00000+0 -29742-4 0  9997
2 58092  43.0046 172.9733 0001315 266.7516  93.3175 15.02534031110417
STARLINK-30578          
1 58093U 23160U   25284.10637064 -.00000372  00000+0 -12470-4 0  9996
2 58093  43.0012 173.3002 0001015 274.6776  85.3951 15.02546662110414
STARLINK-30574          
1 58094U 23160V   25284.12623524  .00001467  00000+0  12369-3 0  9995
2 58094  43.0026 172.5993 0001237 265.0186  95.0515 15.02531714110422
STARLINK-30570          
1 58095U 23160W   25283.39165053  .00001172  00000+0  10181-3 0  9995
2 58095  43.0035 176.5481 0001235 275.9588  84.1113 15.02538018110318
STARLINK-30581          
1 58096U 23160X   25283.98340500 -.00000856  00000+0 -48347-4 0  9999
2 58096  43.0027 174.0934 0001266 241.2149 118.8567 15.02527219110396
STARLINK-30594          
1 58097U 23161A   25283.99843702  .00004519  00000+0  16466-3 0  9998
2 58097  53.1604 140.8047 0001258  88.4529 271.6615 15.30186885111507
STARLINK-30614          
1 58098U 23161B   25283.99529481  .00000444  00000+0  27126-4 0  9993
2 58098  53.1610 140.7856 0000978  87.6128 272.4985 15.30182871111506
STARLINK-30607          
1 58099U 23161C   25283.99851846 -.00009567  00000+0 -31084-3 0  9991
2 58099  53.1609 130.8036 0000822  66.8337 293.2751 15.30247741111638
STARLINK-30600          
1 58100U 23161D   25284.00477338  .00004116  00000+0  15107-3 0  9998
2 58100  53.1597 140.8330 0000894 108.6169 251.4929 15.30185746111507
